{"fetched_at":"2026-07-14T17:40:58.304Z","source":"https://celestrak.org/NORAD/elements/gp.php?NAME=O3B&FORMAT=JSON","constellation":"o3b-mpower","records":[{"OBJECT_NAME":"O3B MPOWER F1","OBJECT_ID":"2022-174A","EPOCH":"2026-07-13T15:28:22.458432","CLASSIFICATION_TYPE":"U","MEAN_MOTION":5.00114743,"ECCENTRICITY":0.0006624,"INCLINATION":0.0494,"RA_OF_ASC_NODE":339.4621,"ARG_OF_PERICENTER":143.6462,"MEAN_ANOMALY":85.2988,"EPHEMERIS_TYPE":0,"NORAD_CAT_ID":54755,"ELEMENT_SET_NO":999,"REV_AT_EPOCH":6668,"BSTAR":0,"MEAN_MOTION_DOT":-2.1e-7,"MEAN_MOTION_DDOT":0},{"OBJECT_NAME":"O3B MPOWER F2","OBJECT_ID":"2022-174B","EPOCH":"2026-07-13T21:29:32.386272","CLASSIFICATION_TYPE":"U","MEAN_MOTION":5.00114848,"ECCENTRICITY":0.0005791,"INCLINATION":0.0452,"RA_OF_ASC_NODE":339.8111,"ARG_OF_PERICENTER":127.3284,"MEAN_ANOMALY":252.9211,"EPHEMERIS_TYPE":0,"NORAD_CAT_ID":54756,"ELEMENT_SET_NO":999,"REV_AT_EPOCH":6678,"BSTAR":0,"MEAN_MOTION_DOT":-2.1e-7,"MEAN_MOTION_DDOT":0},{"OBJECT_NAME":"O3B MPOWER F4","OBJECT_ID":"2023-059A","EPOCH":"2026-07-13T23:02:01.846176","CLASSIFICATION_TYPE":"U","MEAN_MOTION":5.0011537,"ECCENTRICITY":0.0007729,"INCLINATION":0.0629,"RA_OF_ASC_NODE":350.1269,"ARG_OF_PERICENTER":125.7903,"MEAN_ANOMALY":244.1596,"EPHEMERIS_TYPE":0,"NORAD_CAT_ID":56367,"ELEMENT_SET_NO":999,"REV_AT_EPOCH":5994,"BSTAR":0,"MEAN_MOTION_DOT":-2.1e-7,"MEAN_MOTION_DDOT":0},{"OBJECT_NAME":"O3B MPOWER F3","OBJECT_ID":"2023-059B","EPOCH":"2026-07-13T23:49:44.673024","CLASSIFICATION_TYPE":"U","MEAN_MOTION":5.00116385,"ECCENTRICITY":0.0006674,"INCLINATION":0.0636,"RA_OF_ASC_NODE":349.3969,"ARG_OF_PERICENTER":119.8162,"MEAN_ANOMALY":250.8563,"EPHEMERIS_TYPE":0,"NORAD_CAT_ID":56368,"ELEMENT_SET_NO":999,"REV_AT_EPOCH":5606,"BSTAR":0,"MEAN_MOTION_DOT":-2.1e-7,"MEAN_MOTION_DDOT":0},{"OBJECT_NAME":"O3B MPOWER F5","OBJECT_ID":"2023-175A","EPOCH":"2026-07-13T21:27:20.108736","CLASSIFICATION_TYPE":"U","MEAN_MOTION":5.00115888,"ECCENTRICITY":0.0005488,"INCLINATION":0.0521,"RA_OF_ASC_NODE":9.2633,"ARG_OF_PERICENTER":121.2581,"MEAN_ANOMALY":229.5235,"EPHEMERIS_TYPE":0,"NORAD_CAT_ID":58346,"ELEMENT_SET_NO":999,"REV_AT_EPOCH":5077,"BSTAR":0,"MEAN_MOTION_DOT":-2.1e-7,"MEAN_MOTION_DDOT":0},{"OBJECT_NAME":"O3B MPOWER F6","OBJECT_ID":"2023-175B","EPOCH":"2026-07-13T23:52:01.324128","CLASSIFICATION_TYPE":"U","MEAN_MOTION":5.00115749,"ECCENTRICITY":0.0004432,"INCLINATION":0.0539,"RA_OF_ASC_NODE":0.9404,"ARG_OF_PERICENTER":110.1364,"MEAN_ANOMALY":248.9676,"EPHEMERIS_TYPE":0,"NORAD_CAT_ID":58347,"ELEMENT_SET_NO":999,"REV_AT_EPOCH":4969,"BSTAR":0,"MEAN_MOTION_DOT":-2.1e-7,"MEAN_MOTION_DDOT":0},{"OBJECT_NAME":"O3B MPOWER F7","OBJECT_ID":"2024-244A","EPOCH":"2026-07-14T01:27:38.334240","CLASSIFICATION_TYPE":"U","MEAN_MOTION":5.00115261,"ECCENTRICITY":0.0005929,"INCLINATION":0.066,"RA_OF_ASC_NODE":343.0268,"ARG_OF_PERICENTER":125.5087,"MEAN_ANOMALY":251.5259,"EPHEMERIS_TYPE":0,"NORAD_CAT_ID":62362,"ELEMENT_SET_NO":999,"REV_AT_EPOCH":2786,"BSTAR":0,"MEAN_MOTION_DOT":-2.1e-7,"MEAN_MOTION_DDOT":0},{"OBJECT_NAME":"O3B MPOWER F8","OBJECT_ID":"2024-244B","EPOCH":"2026-07-14T00:40:02.731296","CLASSIFICATION_TYPE":"U","MEAN_MOTION":5.0011501,"ECCENTRICITY":0.0005765,"INCLINATION":0.0144,"RA_OF_ASC_NODE":2.7768,"ARG_OF_PERICENTER":98.4473,"MEAN_ANOMALY":258.8377,"EPHEMERIS_TYPE":0,"NORAD_CAT_ID":62363,"ELEMENT_SET_NO":999,"REV_AT_EPOCH":2221,"BSTAR":0,"MEAN_MOTION_DOT":-2.1e-7,"MEAN_MOTION_DDOT":0},{"OBJECT_NAME":"O3B MPOWER F9","OBJECT_ID":"2025-153A","EPOCH":"2026-07-13T18:16:16.428000","CLASSIFICATION_TYPE":"U","MEAN_MOTION":5.00115697,"ECCENTRICITY":0.0006715,"INCLINATION":0.0612,"RA_OF_ASC_NODE":5.7574,"ARG_OF_PERICENTER":124.974,"MEAN_ANOMALY":229.3242,"EPHEMERIS_TYPE":0,"NORAD_CAT_ID":64866,"ELEMENT_SET_NO":999,"REV_AT_EPOCH":2089,"BSTAR":0,"MEAN_MOTION_DOT":-2.1e-7,"MEAN_MOTION_DDOT":0},{"OBJECT_NAME":"O3B MPOWER F10","OBJECT_ID":"2025-153B","EPOCH":"2026-07-14T03:03:04.351680","CLASSIFICATION_TYPE":"U","MEAN_MOTION":5.00114868,"ECCENTRICITY":0.0002433,"INCLINATION":0.0583,"RA_OF_ASC_NODE":2.2706,"ARG_OF_PERICENTER":245.2306,"MEAN_ANOMALY":112.4699,"EPHEMERIS_TYPE":0,"NORAD_CAT_ID":64867,"ELEMENT_SET_NO":999,"REV_AT_EPOCH":2337,"BSTAR":0,"MEAN_MOTION_DOT":-2.2e-7,"MEAN_MOTION_DDOT":0}]}
