O3B MPOWER F1           
1 54755U 22174A   26194.64470438 -.00000021  00000+0  00000+0 0  9992
2 54755   0.0494 339.4621 0006624 143.6462  85.2988  5.00114743 66688
O3B MPOWER F2           
1 54756U 22174B   26194.89551373 -.00000021  00000+0  00000+0 0  9998
2 54756   0.0452 339.8111 0005791 127.3284 252.9211  5.00114848 66785
O3B MPOWER F4           
1 56367U 23059A   26194.95974359 -.00000021  00000+0  00000+0 0  9991
2 56367   0.0629 350.1269 0007729 125.7903 244.1596  5.00115370 59944
O3B MPOWER F3           
1 56368U 23059B   26194.99287816 -.00000021  00000+0  00000+0 0  9991
2 56368   0.0636 349.3969 0006674 119.8162 250.8563  5.00116385 56064
O3B MPOWER F5           
1 58346U 23175A   26194.89398274 -.00000021  00000+0  00000+0 0  9998
2 58346   0.0521   9.2633 0005488 121.2581 229.5235  5.00115888 50777
O3B MPOWER F6           
1 58347U 23175B   26194.99445977 -.00000021  00000+0  00000+0 0  9993
2 58347   0.0539   0.9404 0004432 110.1364 248.9676  5.00115749 49694
O3B MPOWER F7           
1 62362U 24244A   26195.06086035 -.00000021  00000+0  00000+0 0  9998
2 62362   0.0660 343.0268 0005929 125.5087 251.5259  5.00115261 27865
O3B MPOWER F8           
1 62363U 24244B   26195.02780939 -.00000021  00000+0  00000+0 0  9999
2 62363   0.0144   2.7768 0005765  98.4473 258.8377  5.00115010 22219
O3B MPOWER F9           
1 64866U 25153A   26194.76130125 -.00000021  00000+0  00000+0 0  9995
2 64866   0.0612   5.7574 0006715 124.9740 229.3242  5.00115697 20892
O3B MPOWER F10          
1 64867U 25153B   26195.12713370 -.00000022  00000+0  00000+0 0  9997
2 64867   0.0583   2.2706 0002433 245.2306 112.4699  5.00114868 23370
